{"type":"FeatureCollection","features":[{"type":"Feature","properties":{"nama":"Kota Parepare","sumber":"OpenStreetMap (ODbL) — relasi 13246109","keterangan":"Batas kota; dasar pemeriksaan posisi GPS warga"},"geometry":{"type":"MultiPolygon","coordinates":[[[[119.616779,-4.05288],[119.61777,-4.053367],[119.617855,-4.053153],[119.618383,-4.053219],[119.619795,-4.054112],[119.619877,-4.05493],[119.620431,-4.055832],[119.621434,-4.055757],[119.621957,-4.056261],[119.622414,-4.057389],[119.622933,-4.061091],[119.621563,-4.06555],[119.621195,-4.066143],[119.620314,-4.066802],[119.620597,-4.067224],[119.621239,-4.067697],[119.621849,-4.067714],[119.62354,-4.068355],[119.625492,-4.069611],[119.625999,-4.07014],[119.6262,-4.071565],[119.626658,-4.072292],[119.628245,-4.073039],[119.629297,-4.074026],[119.630709,-4.074342],[119.633395,-4.073902],[119.634051,-4.074105],[119.635003,-4.075457],[119.636965,-4.077355],[119.639789,-4.076563],[119.640605,-4.076802],[119.642024,-4.078505],[119.642665,-4.078638],[119.6464,-4.07759],[119.64756,-4.077003],[119.650484,-4.07739],[119.65161,-4.0767],[119.654739,-4.07597],[119.656193,-4.075102],[119.657502,-4.073789],[119.661126,-4.073397],[119.662354,-4.07153],[119.664048,-4.07148],[119.665316,-4.070353],[119.667081,-4.069444],[119.667712,-4.069561],[119.66869,-4.070362],[119.669296,-4.070499],[119.671188,-4.070507],[119.674106,-4.070064],[119.675267,-4.070548],[119.678336,-4.071065],[119.679846,-4.072714],[119.682012,-4.073163],[119.682772,-4.073544],[119.683792,-4.073166],[119.687136,-4.07372],[119.690984,-4.07382],[119.691713,-4.074088],[119.692333,-4.074766],[119.69414,-4.075169],[119.694909,-4.075035],[119.69551,-4.075774],[119.696645,-4.076231],[119.697611,-4.077175],[119.698979,-4.076448],[119.700015,-4.076256],[119.701457,-4.075599],[119.703214,-4.077858],[119.704365,-4.078279],[119.706761,-4.079977],[119.708527,-4.07821],[119.711513,-4.078887],[119.712296,-4.079335],[119.712766,-4.079915],[119.713147,-4.079983],[119.713939,-4.079842],[119.714651,-4.078831],[119.715717,-4.078586],[119.716177,-4.078112],[119.717513,-4.078873],[119.718576,-4.077708],[119.719483,-4.077264],[119.720871,-4.077858],[119.721273,-4.078511],[119.721445,-4.076611],[119.720443,-4.075537],[119.718569,-4.074288],[119.716161,-4.073735],[119.713571,-4.07232],[119.710472,-4.07231],[119.709107,-4.071655],[119.708347,-4.070654],[119.70779,-4.069327],[119.707171,-4.062686],[119.706235,-4.059817],[119.704059,-4.057086],[119.702714,-4.05597],[119.700844,-4.055073],[119.698496,-4.054593],[119.697255,-4.05344],[119.69718,-4.0525],[119.697706,-4.048522],[119.697276,-4.045496],[119.697434,-4.044909],[119.698147,-4.043695],[119.699979,-4.04208],[119.70058,-4.041247],[119.700175,-4.04048],[119.698513,-4.039926],[119.697996,-4.039331],[119.698003,-4.03681],[119.697351,-4.034724],[119.697394,-4.0342],[119.699257,-4.030145],[119.698481,-4.026497],[119.699285,-4.025048],[119.698761,-4.023541],[119.698839,-4.023008],[119.699371,-4.022183],[119.700922,-4.021537],[119.701137,-4.021192],[119.700287,-4.020355],[119.697222,-4.018461],[119.695827,-4.018544],[119.694839,-4.017725],[119.695003,-4.016505],[119.697065,-4.014952],[119.697289,-4.014355],[119.696832,-4.014384],[119.694143,-4.016056],[119.693127,-4.01642],[119.690797,-4.014829],[119.688656,-4.014583],[119.687453,-4.013999],[119.686347,-4.012846],[119.685793,-4.01189],[119.686005,-4.010968],[119.686482,-4.010439],[119.688942,-4.009316],[119.689955,-4.007719],[119.690448,-4.004166],[119.690999,-4.002411],[119.69297,-3.99841],[119.692218,-3.994682],[119.691853,-3.994264],[119.691083,-3.994043],[119.6868,-3.99426],[119.68581,-3.993498],[119.684665,-3.991479],[119.684229,-3.988517],[119.683386,-3.986513],[119.670932,-3.973242],[119.667371,-3.968263],[119.665875,-3.963236],[119.663361,-3.960543],[119.653385,-3.967839],[119.652682,-3.968938],[119.651524,-3.96978],[119.650657,-3.969818],[119.64674,-3.972773],[119.645878,-3.974893],[119.644422,-3.975393],[119.642787,-3.976504],[119.6401,-3.980511],[119.639246,-3.980869],[119.638695,-3.980536],[119.638639,-3.980191],[119.638173,-3.9798],[119.637252,-3.979962],[119.63616,-3.981092],[119.636046,-3.982245],[119.634097,-3.982817],[119.634123,-3.983456],[119.633925,-3.983534],[119.634747,-3.986357],[119.633476,-3.989401],[119.633655,-3.990362],[119.632993,-3.990321],[119.632718,-3.991792],[119.633365,-3.991833],[119.633354,-3.992316],[119.633018,-3.993528],[119.632839,-3.993517],[119.632227,-3.996557],[119.631095,-3.998296],[119.630036,-4.000998],[119.629408,-4.001948],[119.627171,-4.003452],[119.624658,-4.004333],[119.624238,-4.003687],[119.622551,-4.002879],[119.622304,-4.002142],[119.621585,-4.001953],[119.621355,-4.002145],[119.621669,-4.004169],[119.621372,-4.004302],[119.621366,-4.004617],[119.62171,-4.004913],[119.621712,-4.005905],[119.619916,-4.01553],[119.620438,-4.017369],[119.621149,-4.018572],[119.62172,-4.018939],[119.623116,-4.02239],[119.623525,-4.022311],[119.623159,-4.022493],[119.624059,-4.02451],[119.624374,-4.029392],[119.62441,-4.030736],[119.623939,-4.030998],[119.625125,-4.03417],[119.625682,-4.038134],[119.625087,-4.038711],[119.624545,-4.040283],[119.622946,-4.047418],[119.62072,-4.0483],[119.617802,-4.050567],[119.618085,-4.0508],[119.617826,-4.050975],[119.617852,-4.051317],[119.617217,-4.051817],[119.617199,-4.051326],[119.616787,-4.052792],[119.616779,-4.05288]],[[119.632472,-4.029307],[119.632682,-4.028916],[119.633223,-4.029205],[119.633013,-4.029596],[119.632472,-4.029307]],[[119.633039,-4.028228],[119.633157,-4.027765],[119.633673,-4.027896],[119.633555,-4.028359],[119.633039,-4.028228]]],[[[119.617254,-4.051268],[119.617714,-4.050998],[119.617787,-4.050636],[119.617484,-4.050951],[119.617254,-4.051268]]]]}}]}
